[

  {
    "OBJECT_NAME": "TIROS N",
    "OBJECT_ID": "1978-096A",
    "EPOCH": "2025-04-16T16:37:06.342528",
    "MEAN_MOTION": 14.19163357,
    "ECCENTRICITY": 0.0011183,
    "INCLINATION": 98.4933,
    "RA_OF_ASC_NODE": 141.212,
    "ARG_OF_PERICENTER": 43.7645,
    "MEAN_ANOMALY": 316.4416,
    "EPHEMERIS_TYPE": 0,
    "CLASSIFICATION_TYPE": "U",
    "NORAD_CAT_ID": 11060,
    "ELEMENT_SET_NO": 999,
    "REV_AT_EPOCH": 61825,
    "BSTAR": 0.00019467,
    "MEAN_MOTION_DOT": 3.66e-6,
    "MEAN_MOTION_DDOT": 0
  },
  {
    "OBJECT_NAME": "NOAA 15",
    "OBJECT_ID": "1998-030A",
    "EPOCH": "2025-04-16T21:21:42.626016",
    "MEAN_MOTION": 14.26945406,
    "ECCENTRICITY": 0.0010926,
    "INCLINATION": 98.5405,
    "RA_OF_ASC_NODE": 133.3017,
    "ARG_OF_PERICENTER": 151.1045,
    "MEAN_ANOMALY": 209.0743,
    "EPHEMERIS_TYPE": 0,
    "CLASSIFICATION_TYPE": "U",
    "NORAD_CAT_ID": 25338,
    "ELEMENT_SET_NO": 999,
    "REV_AT_EPOCH": 40049,
    "BSTAR": 0.00029021,
    "MEAN_MOTION_DOT": 6.63e-6,
    "MEAN_MOTION_DDOT": 0
  },
  {
    "OBJECT_NAME": "NOAA 18",
    "OBJECT_ID": "2005-018A",
    "EPOCH": "2025-04-16T21:34:51.339648",
    "MEAN_MOTION": 14.13578825,
    "ECCENTRICITY": 0.0013062,
    "INCLINATION": 98.8427,
    "RA_OF_ASC_NODE": 186.9777,
    "ARG_OF_PERICENTER": 282.0378,
    "MEAN_ANOMALY": 77.9331,
    "EPHEMERIS_TYPE": 0,
    "CLASSIFICATION_TYPE": "U",
    "NORAD_CAT_ID": 28654,
    "ELEMENT_SET_NO": 999,
    "REV_AT_EPOCH": 2608,
    "BSTAR": 0.00038892,
    "MEAN_MOTION_DOT": 6.89e-6,
    "MEAN_MOTION_DDOT": 0
  },
  {
    "OBJECT_NAME": "NOAA 19",
    "OBJECT_ID": "2009-005A",
    "EPOCH": "2025-04-16T21:31:33.593376",
    "MEAN_MOTION": 14.13343679,
    "ECCENTRICITY": 0.0014413,
    "INCLINATION": 99.0011,
    "RA_OF_ASC_NODE": 171.2913,
    "ARG_OF_PERICENTER": 152.1009,
    "MEAN_ANOMALY": 208.0939,
    "EPHEMERIS_TYPE": 0,
    "CLASSIFICATION_TYPE": "U",
    "NORAD_CAT_ID": 33591,
    "ELEMENT_SET_NO": 999,
    "REV_AT_EPOCH": 83426,
    "BSTAR": 0.00037139,
    "MEAN_MOTION_DOT": 6.52e-6,
    "MEAN_MOTION_DDOT": 0
  },
  {
    "OBJECT_NAME": "SUOMI NPP",
    "OBJECT_ID": "2011-061A",
    "EPOCH": "2025-04-16T21:39:14.331744",
    "MEAN_MOTION": 14.19520877,
    "ECCENTRICITY": 0.0002483,
    "INCLINATION": 98.7544,
    "RA_OF_ASC_NODE": 46.7736,
    "ARG_OF_PERICENTER": 97.8144,
    "MEAN_ANOMALY": 262.3314,
    "EPHEMERIS_TYPE": 0,
    "CLASSIFICATION_TYPE": "U",
    "NORAD_CAT_ID": 37849,
    "ELEMENT_SET_NO": 999,
    "REV_AT_EPOCH": 69796,
    "BSTAR": 0.00019761,
    "MEAN_MOTION_DOT": 3.73e-6,
    "MEAN_MOTION_DDOT": 0
  },
  {
    "OBJECT_NAME": "NOAA 20 (JPSS-1)",
    "OBJECT_ID": "2017-073A",
    "EPOCH": "2025-04-16T22:01:50.117088",
    "MEAN_MOTION": 14.19527166,
    "ECCENTRICITY": 0.0002236,
    "INCLINATION": 98.7383,
    "RA_OF_ASC_NODE": 46.195,
    "ARG_OF_PERICENTER": 84.9877,
    "MEAN_ANOMALY": 275.1555,
    "EPHEMERIS_TYPE": 0,
    "CLASSIFICATION_TYPE": "U",
    "NORAD_CAT_ID": 43013,
    "ELEMENT_SET_NO": 999,
    "REV_AT_EPOCH": 38399,
    "BSTAR": 0.00018914,
    "MEAN_MOTION_DOT": 3.55e-6,
    "MEAN_MOTION_DDOT": 0
  }
]
